CTC2_L_00478001-01
1 36356U 23935LD  26037.47796296  .00000000  00000+0  00000-0 0  9992
2 36356  50.0000   0.0000 0000000   0.0000   0.0000 14.27529621    10
CTC2_L_00478001-02
1 36357U 22797XB  26037.47796296  .00000000  00000+0  00000-0 0  9998
2 36357  50.0000   0.0000 0000000   0.0000 180.0000 14.27529621    10
CTC2_L_00478002-01
1 36358U 24753VS  26037.47796296  .00000000  00000+0  00000-0 0  9993
2 36358  50.0000  12.0000 0000000   0.0000  24.0000 14.27529621    11
CTC2_L_00478002-02
1 36359U 22653VW  26037.47796296  .00000000  00000+0  00000-0 0  9991
2 36359  50.0000  12.0000 0000000   0.0000 204.0000 14.27529621    12
CTC2_L_00478003-01
1 36360U 23347IH  26037.47796296  .00000000  00000+0  00000-0 0  9994
2 36360  50.0000  24.0000 0000000   0.0000  48.0000 14.27529621    13
CTC2_L_00478003-02
1 36361U 23518PT  26037.47796296  .00000000  00000+0  00000-0 0  9995
2 36361  50.0000  24.0000 0000000   0.0000 228.0000 14.27529621    14
CTC2_L_00478004-01
1 36362U 23944HU  26037.47796296  .00000000  00000+0  00000-0 0  9999
2 36362  50.0000  36.0000 0000000   0.0000  72.0000 14.27529621    15
CTC2_L_00478004-02
1 36363U 25710KF  26037.47796296  .00000000  00000+0  00000-0 0  9993
2 36363  50.0000  36.0000 0000000   0.0000 252.0000 14.27529621    16
CTC2_L_00478005-01
1 36364U 26298HW  26037.47796296  .00000000  00000+0  00000-0 0  9996
2 36364  50.0000  48.0000 0000000   0.0000  96.0000 14.27529621    16
CTC2_L_00478005-02
1 36365U 25980DP  26037.47796296  .00000000  00000+0  00000-0 0  9994
2 36365  50.0000  48.0000 0000000   0.0000 276.0000 14.27529621    17
CTC2_L_00478006-01
1 36366U 26424AR  26037.47796296  .00000000  00000+0  00000-0 0  9999
2 36366  50.0000  60.0000 0000000   0.0000 120.0000 14.27529621    10
CTC2_L_00478006-02
1 36367U 25608LH  26037.47796296  .00000000  00000+0  00000-0 0  9993
2 36367  50.0000  60.0000 0000000   0.0000 300.0000 14.27529621    11
CTC2_L_00478007-01
1 36368U 25970QZ  26037.47796296  .00000000  00000+0  00000-0 0  9996
2 36368  50.0000  72.0000 0000000   0.0000 144.0000 14.27529621    11
CTC2_L_00478007-02
1 36369U 22470UX  26037.47796296  .00000000  00000+0  00000-0 0  9999
2 36369  50.0000  72.0000 0000000   0.0000 324.0000 14.27529621    12
CTC2_L_00478008-01
1 36370U 22949MM  26037.47796296  .00000000  00000+0  00000-0 0  9992
2 36370  50.0000  84.0000 0000000   0.0000 168.0000 14.27529621    13
CTC2_L_00478008-02
1 36371U 22629EH  26037.47796296  .00000000  00000+0  00000-0 0  9998
2 36371  50.0000  84.0000 0000000   0.0000 348.0000 14.27529621    14
CTC2_L_00478009-01
1 36372U 26735FB  26037.47796296  .00000000  00000+0  00000-0 0  9991
2 36372  50.0000  96.0000 0000000   0.0000 192.0000 14.27529621    15
CTC2_L_00478009-02
1 36373U 24404JM  26037.47796296  .00000000  00000+0  00000-0 0  9993
2 36373  50.0000  96.0000 0000000   0.0000  12.0000 14.27529621    17
CTC2_L_00478010-01
1 36374U 24647DZ  26037.47796296  .00000000  00000+0  00000-0 0  9993
2 36374  50.0000 108.0000 0000000   0.0000 216.0000 14.27529621    18
CTC2_L_00478010-02
1 36375U 25048GD  26037.47796296  .00000000  00000+0  00000-0 0  9990
2 36375  50.0000 108.0000 0000000   0.0000  36.0000 14.27529621    19
CTC2_L_00478011-01
1 36376U 24923YA  26037.47796296  .00000000  00000+0  00000-0 0  9992
2 36376  50.0000 120.0000 0000000   0.0000 240.0000 14.27529621    11
CTC2_L_00478011-02
1 36377U 25321SC  26037.47796296  .00000000  00000+0  00000-0 0  9996
2 36377  50.0000 120.0000 0000000   0.0000  60.0000 14.27529621    12
CTC2_L_00478012-01
1 36378U 22684PO  26037.47796296  .00000000  00000+0  00000-0 0  9996
2 36378  50.0000 132.0000 0000000   0.0000 264.0000 14.27529621    12
CTC2_L_00478012-02
1 36379U 26615AW  26037.47796296  .00000000  00000+0  00000-0 0  9995
2 36379  50.0000 132.0000 0000000   0.0000  84.0000 14.27529621    13
CTC2_L_00478013-01
1 36380U 22583KT  26037.47796296  .00000000  00000+0  00000-0 0  9997
2 36380  50.0000 144.0000 0000000   0.0000 288.0000 14.27529621    14
CTC2_L_00478013-02
1 36381U 24637GQ  26037.47796296  .00000000  00000+0  00000-0 0  9990
2 36381  50.0000 144.0000 0000000   0.0000 108.0000 14.27529621    16
CTC2_L_00478014-01
1 36382U 22653UI  26037.47796296  .00000000  00000+0  00000-0 0  9997
2 36382  50.0000 156.0000 0000000   0.0000 312.0000 14.27529621    17
CTC2_L_00478014-02
1 36383U 26067TO  26037.47796296  .00000000  00000+0  00000-0 0  9991
2 36383  50.0000 156.0000 0000000   0.0000 132.0000 14.27529621    18
CTC2_L_00478015-01
1 36384U 23868ZB  26037.47796296  .00000000  00000+0  00000-0 0  9998
2 36384  50.0000 168.0000 0000000   0.0000 336.0000 14.27529621    18
CTC2_L_00478015-02
1 36385U 23165UG  26037.47796296  .00000000  00000+0  00000-0 0  9999
2 36385  50.0000 168.0000 0000000   0.0000 156.0000 14.27529621    19
CTC2_L_00478016-01
1 36386U 22208MO  26037.47796296  .00000000  00000+0  00000-0 0  9997
2 36386  50.0000 180.0000 0000000   0.0000   0.0000 14.27529621    12
CTC2_L_00478016-02
1 36387U 25177WX  26037.47796296  .00000000  00000+0  00000-0 0  9996
2 36387  50.0000 180.0000 0000000   0.0000 180.0000 14.27529621    12
CTC2_L_00478017-01
1 36388U 23108HY  26037.47796296  .00000000  00000+0  00000-0 0  9999
2 36388  50.0000 192.0000 0000000   0.0000  24.0000 14.27529621    13
CTC2_L_00478017-02
1 36389U 22957JO  26037.47796296  .00000000  00000+0  00000-0 0  9991
2 36389  50.0000 192.0000 0000000   0.0000 204.0000 14.27529621    14
CTC2_L_00478018-01
1 36390U 23392HT  26037.47796296  .00000000  00000+0  00000-0 0  9997
2 36390  50.0000 204.0000 0000000   0.0000  48.0000 14.27529621    16
CTC2_L_00478018-02
1 36391U 26138SO  26037.47796296  .00000000  00000+0  00000-0 0  9999
2 36391  50.0000 204.0000 0000000   0.0000 228.0000 14.27529621    17
CTC2_L_00478019-01
1 36392U 26467TP  26037.47796296  .00000000  00000+0  00000-0 0  9995
2 36392  50.0000 216.0000 0000000   0.0000  72.0000 14.27529621    18
CTC2_L_00478019-02
1 36393U 23154HE  26037.47796296  .00000000  00000+0  00000-0 0  9996
2 36393  50.0000 216.0000 0000000   0.0000 252.0000 14.27529621    19
CTC2_L_00478020-01
1 36394U 23908NH  26037.47796296  .00000000  00000+0  00000-0 0  9994
2 36394  50.0000 228.0000 0000000   0.0000  96.0000 14.27529621    19
CTC2_L_00478020-02
1 36395U 23413NS  26037.47796296  .00000000  00000+0  00000-0 0  9996
2 36395  50.0000 228.0000 0000000   0.0000 276.0000 14.27529621    10
CTC2_L_00478021-01
1 36396U 26465NL  26037.47796296  .00000000  00000+0  00000-0 0  9997
2 36396  50.0000 240.0000 0000000   0.0000 120.0000 14.27529621    13
CTC2_L_00478021-02
1 36397U 26396RH  26037.47796296  .00000000  00000+0  00000-0 0  9991
2 36397  50.0000 240.0000 0000000   0.0000 300.0000 14.27529621    14
CTC2_L_00478022-01
1 36398U 24500NI  26037.47796296  .00000000  00000+0  00000-0 0  9997
2 36398  50.0000 252.0000 0000000   0.0000 144.0000 14.27529621    14
CTC2_L_00478022-02
1 36399U 26944RD  26037.47796296  .00000000  00000+0  00000-0 0  9992
2 36399  50.0000 252.0000 0000000   0.0000 324.0000 14.27529621    15
CTC2_L_00478023-01
1 36400U 25506PM  26037.47796296  .00000000  00000+0  00000-0 0  9998
2 36400  50.0000 264.0000 0000000   0.0000 168.0000 14.27529621    17
CTC2_L_00478023-02
1 36401U 23835FI  26037.47796296  .00000000  00000+0  00000-0 0  9992
2 36401  50.0000 264.0000 0000000   0.0000 348.0000 14.27529621    18
CTC2_L_00478024-01
1 36402U 25934OA  26037.47796296  .00000000  00000+0  00000-0 0  9995
2 36402  50.0000 276.0000 0000000   0.0000 192.0000 14.27529621    19
CTC2_L_00478024-02
1 36403U 25729OZ  26037.47796296  .00000000  00000+0  00000-0 0  9998
2 36403  50.0000 276.0000 0000000   0.0000  12.0000 14.27529621    11
CTC2_L_00478025-01
1 36404U 23165PX  26037.47796296  .00000000  00000+0  00000-0 0  9991
2 36404  50.0000 288.0000 0000000   0.0000 216.0000 14.27529621    11
CTC2_L_00478025-02
1 36405U 23215HK  26037.47796296  .00000000  00000+0  00000-0 0  9998
2 36405  50.0000 288.0000 0000000   0.0000  36.0000 14.27529621    12
CTC2_L_00478026-01
1 36406U 26006CT  26037.47796296  .00000000  00000+0  00000-0 0  9990
2 36406  50.0000 300.0000 0000000   0.0000 240.0000 14.27529621    15
CTC2_L_00478026-02
1 36407U 24594WK  26037.47796296  .00000000  00000+0  00000-0 0  9991
2 36407  50.0000 300.0000 0000000   0.0000  60.0000 14.27529621    16
CTC2_L_00478027-01
1 36408U 25464HZ  26037.47796296  .00000000  00000+0  00000-0 0  9999
2 36408  50.0000 312.0000 0000000   0.0000 264.0000 14.27529621    16
CTC2_L_00478027-02
1 36409U 23777EY  26037.47796296  .00000000  00000+0  00000-0 0  9995
2 36409  50.0000 312.0000 0000000   0.0000  84.0000 14.27529621    17
CTC2_L_00478028-01
1 36410U 24677HB  26037.47796296  .00000000  00000+0  00000-0 0  9997
2 36410  50.0000 324.0000 0000000   0.0000 288.0000 14.27529621    18
CTC2_L_00478028-02
1 36411U 24552RN  26037.47796296  .00000000  00000+0  00000-0 0  9990
2 36411  50.0000 324.0000 0000000   0.0000 108.0000 14.27529621    10
CTC2_L_00478029-01
1 36412U 23458MM  26037.47796296  .00000000  00000+0  00000-0 0  9995
2 36412  50.0000 336.0000 0000000   0.0000 312.0000 14.27529621    11
CTC2_L_00478029-02
1 36413U 26598KT  26037.47796296  .00000000  00000+0  00000-0 0  9994
2 36413  50.0000 336.0000 0000000   0.0000 132.0000 14.27529621    12
CTC2_L_00478030-01
1 36414U 25747IC  26037.47796296  .00000000  00000+0  00000-0 0  9990
2 36414  50.0000 348.0000 0000000   0.0000 336.0000 14.27529621    12
CTC2_L_00478030-02
1 36415U 23837VG  26037.47796296  .00000000  00000+0  00000-0 0  9999
2 36415  50.0000 348.0000 0000000   0.0000 156.0000 14.27529621    13
